CCSDS_OMM_VERS,COMMENT,CREATION_DATE,ORIGINATOR,OBJECT_NAME,OBJECT_ID,CENTER_NAME,REF_FRAME,TIME_SYSTEM,MEAN_ELEMENT_THEORY,EPOCH,MEAN_MOTION,ECCENTRICITY,INCLINATION,RA_OF_ASC_NODE,ARG_OF_PERICENTER,MEAN_ANOMALY,EPHEMERIS_TYPE,CLASSIFICATION_TYPE,NORAD_CAT_ID,ELEMENT_SET_NO,REV_AT_EPOCH,BSTAR,MEAN_MOTION_DOT,MEAN_MOTION_DDOT,SEMIMAJOR_AXIS,PERIOD,APOAPSIS,PERIAPSIS,OBJECT_TYPE,RCS_SIZE,COUNTRY_CODE,LAUNCH_DATE,SITE,DECAY_DATE,FILE,GP_ID,TLE_LINE0,TLE_LINE1,TLE_LINE2
"2.0","GENERATED VIA SPACE-TRACK.ORG API","2020-11-18T02:19:31","18 SPCS","STARLINK-1694","2020-070N","EARTH","TEME","UTC","SGP4","2020-11-17T22:00:00.999936","15.62744272","0.00013210","52.9994","233.8291","86.5902","326.1822","0","U","46544","999","177","-0.00006995400000","-0.00006932","0.0000000000000","6757.871","92.145","380.628","378.843","PAYLOAD","","US","2020-10-06","AFETR","","2878669","165767688","0 STARLINK-1694","1 46544U 20070N   20322.91667824 -.00006932 +00000-0 -69954-4 0  9993","2 46544 052.9994 233.8291 0001321 086.5902 326.1822 15.62744272001777"
"2.0","GENERATED VIA SPACE-TRACK.ORG API","2020-11-18T06:56:10","18 SPCS","STARLINK-1694","2020-070N","EARTH","TEME","UTC","SGP4","2020-11-18T06:00:00.999648","15.62748674","0.00011950","52.9992","232.1980","74.9244","54.2341","0","U","46544","999","752","-0.00002031900000","-0.00002394","0.0000000000000","6757.858","92.145","380.530","378.915","PAYLOAD","","US","2020-10-06","AFETR","","2879012","165775876","0 STARLINK-1694","1 46544U 20070N   20323.25001157 -.00002394  00000-0 -20319-4 0  9992","2 46544  52.9992 232.1980 0001195  74.9244  54.2341 15.62748674  7525"
"2.0","GENERATED VIA SPACE-TRACK.ORG API","2020-11-18T22:37:40","18 SPCS","STARLINK-1694","2020-070N","EARTH","TEME","UTC","SGP4","2020-11-18T14:00:01.999872","15.62711938","0.00010090","52.9992","230.5636","86.0850","119.5386","0","U","46544","999","177","0.00110690000000","0.00101934","0.0000000000000","6757.964","92.147","380.511","379.147","PAYLOAD","","US","2020-10-06","AFETR","","2879575","165808808","0 STARLINK-1694","1 46544U 20070N   20323.58335648 +.00101934 +00000-0 +11069-2 0  9991","2 46544 052.9992 230.5636 0001009 086.0850 119.5386 15.62711938001774"
"2.0","GENERATED VIA SPACE-TRACK.ORG API","2020-11-18T23:06:10","18 SPCS","STARLINK-1694","2020-070N","EARTH","TEME","UTC","SGP4","2020-11-18T22:00:01.999584","15.62816410","0.00010150","52.9991","228.9325","80.2514","201.7569","0","U","46544","999","763","-0.00040957000000","-0.00037953","0.0000000000000","6757.663","92.141","380.213","378.842","PAYLOAD","","US","2020-10-06","AFETR","","2879822","165815160","0 STARLINK-1694","1 46544U 20070N   20323.91668981 -.00037953  00000-0 -40957-3 0  9997","2 46544  52.9991 228.9325 0001015  80.2514 201.7569 15.62816410  7638"
"2.0","GENERATED VIA SPACE-TRACK.ORG API","2020-11-19T20:53:03","18 SPCS","STARLINK-1694","2020-070N","EARTH","TEME","UTC","SGP4","2020-11-19T06:00:00.999648","15.62771470","0.00009310","52.9983","227.3011","63.1666","295.2401","0","U","46544","999","176","0.00002502300000","0.00001759","0.0000000000000","6757.792","92.143","380.286","379.028","PAYLOAD","","US","2020-10-06","AFETR","","2880719","165876634","0 STARLINK-1694","1 46544U 20070N   20324.25001157 +.00001759 +00000-0 +25023-4 0  9992","2 46544 052.9983 227.3011 0000931 063.1666 295.2401 15.62771470001765"
"2.0","GENERATED VIA SPACE-TRACK.ORG API","2020-11-19T21:56:10","18 SPCS","STARLINK-1694","2020-070N","EARTH","TEME","UTC","SGP4","2020-11-19T20:00:01.999872","15.62713984","0.00013150","52.9986","224.4431","87.4960","314.6901","0","U","46544","999","777","-0.00002433000000","-0.00002758","0.0000000000000","6757.958","92.147","380.711","378.934","PAYLOAD","","US","2020-10-06","AFETR","","2880929","165882727","0 STARLINK-1694","1 46544U 20070N   20324.83335648 -.00002758  00000-0 -24330-4 0  9993","2 46544  52.9986 224.4431 0001315  87.4960 314.6901 15.62713984  7779"
"2.0","GENERATED VIA SPACE-TRACK.ORG API","2020-11-20T03:36:31","18 SPCS","STARLINK-1694","2020-070N","EARTH","TEME","UTC","SGP4","2020-11-19T22:00:01.999584","15.62707509","0.00013250","52.9985","224.0356","81.0779","70.2060","0","U","46544","999","177","0.00029361000000","0.00026389","0.0000000000000","6757.976","92.147","380.737","378.946","PAYLOAD","","US","2020-10-06","AFETR","","2881187","165904812","0 STARLINK-1694","1 46544U 20070N   20324.91668981 +.00026389 +00000-0 +29361-3 0  9993","2 46544 052.9985 224.0356 0001325 081.0779 070.2060 15.62707509001770"
"2.0","GENERATED VIA SPACE-TRACK.ORG API","2020-11-20T07:06:09","18 SPCS","STARLINK-1694","2020-070N","EARTH","TEME","UTC","SGP4","2020-11-20T06:00:00.999648","15.62728054","0.00012880","52.9983","222.4041","73.0491","154.5204","0","U","46544","999","784","0.00078301000000","0.00071727","0.0000000000000","6757.917","92.146","380.653","378.912","PAYLOAD","","US","2020-10-06","AFETR","","2881466","165912193","0 STARLINK-1694","1 46544U 20070N   20325.25001157  .00071727  00000-0  78301-3 0  9991","2 46544  52.9983 222.4041 0001288  73.0491 154.5204 15.62728054  7849"
"2.0","GENERATED VIA SPACE-TRACK.ORG API","2020-11-20T19:18:39","18 SPCS","STARLINK-1694","2020-070N","EARTH","TEME","UTC","SGP4","2020-11-20T14:00:01.000224","15.62776835","0.00011110","52.9987","220.7698","85.1824","218.7915","0","U","46544","999","182","-0.00012289000000","-0.00011780","0.0000000000000","6757.777","92.143","380.392","378.891","PAYLOAD","","US","2020-10-06","AFETR","","2881969","165937994","0 STARLINK-1694","1 46544U 20070N   20325.58334491 -.00011780 +00000-0 -12289-3 0  9995","2 46544 052.9987 220.7698 0001111 085.1824 218.7915 15.62776835001825"
"2.0","GENERATED VIA SPACE-TRACK.ORG API","2020-11-21T05:49:19","18 SPCS","STARLINK-1694","2020-070N","EARTH","TEME","UTC","SGP4","2020-11-20T21:54:49.349088","15.62767669","0.00011520","52.9996","219.1539","67.2433","292.8702","0","U","46544","999","793","0.00008363400000","0.00007135","0.0000000000000","6757.803","92.144","380.447","378.890","PAYLOAD","","US","2020-10-06","AFETR","","2882594","165970226","0 STARLINK-1694","1 46544U 20070N   20325.91307117 +.00007135 +00000-0 +83634-4 0  9997","2 46544 052.9996 219.1539 0001152 067.2433 292.8702 15.62767669007933"
"2.0","GENERATED VIA SPACE-TRACK.ORG API","2020-11-20T23:16:09","18 SPCS","STARLINK-1694","2020-070N","EARTH","TEME","UTC","SGP4","2020-11-20T22:00:00.999936","15.62797819","0.00010000","52.9989","219.1387","76.4513","303.9393","0","U","46544","999","794","-0.00059758000000","-0.00054976","0.0000000000000","6757.716","92.142","380.257","378.905","PAYLOAD","","US","2020-10-06","AFETR","","2882515","165950140","0 STARLINK-1694","1 46544U 20070N   20325.91667824 -.00054976  00000-0 -59758-3 0  9997","2 46544  52.9989 219.1387 0001000  76.4513 303.9393 15.62797819  7940"
"2.0","GENERATED VIA SPACE-TRACK.ORG API","2020-11-21T18:30:46","18 SPCS","STARLINK-1694","2020-070N","EARTH","TEME","UTC","SGP4","2020-11-21T06:00:00.999648","15.62816236","0.00009090","52.9983","217.5071","62.4529","34.3583","0","U","46544","999","179","-0.00182080000000","-0.00164327","0.0000000000000","6757.663","92.141","380.142","378.914","PAYLOAD","","US","2020-10-06","AFETR","","2883486","166014881","0 STARLINK-1694","1 46544U 20070N   20326.25001157 -.00164327 +00000-0 -18208-2 0  9992","2 46544 052.9983 217.5071 0000909 062.4529 034.3583 15.62816236001793"
"2.0","GENERATED VIA SPACE-TRACK.ORG API","2020-11-21T14:56:10","18 SPCS","STARLINK-1694","2020-070N","EARTH","TEME","UTC","SGP4","2020-11-21T14:00:01.000224","15.62775797","0.00009380","52.9986","215.8726","76.9834","96.2838","0","U","46544","999","804","-0.00049224000000","-0.00045393","0.0000000000000","6757.780","92.143","380.279","379.011","PAYLOAD","","US","2020-10-06","AFETR","","2883444","165992969","0 STARLINK-1694","1 46544U 20070N   20326.58334491 -.00045393  00000-0 -49224-3 0  9992","2 46544  52.9986 215.8726 0000938  76.9834  96.2838 15.62775797  8046"
"2.0","GENERATED VIA SPACE-TRACK.ORG API","2020-11-22T03:58:10","18 SPCS","STARLINK-1694","2020-070N","EARTH","TEME","UTC","SGP4","2020-11-21T22:28:14.042496","15.62813828","0.00013220","52.9994","214.1433","67.4521","292.6632","0","U","46544","999","809","0.00015814000000","0.00014005","0.0000000000000","6757.670","92.141","380.428","378.642","PAYLOAD","","US","2020-10-06","AFETR","","2883917","166044808","0 STARLINK-1694","1 46544U 20070N   20326.93627364 +.00014005 +00000-0 +15814-3 0  9997","2 46544 052.9994 214.1433 0001322 067.4521 292.6632 15.62813828008095"
"2.0","GENERATED VIA SPACE-TRACK.ORG API","2020-11-22T06:46:10","18 SPCS","STARLINK-1694","2020-070N","EARTH","TEME","UTC","SGP4","2020-11-22T02:00:01.999872","15.62746791","0.00016320","52.9986","213.4261","73.6888","34.4351","0","U","46544","999","812","0.00103390000000","0.00095229","0.0000000000000","6757.863","92.145","380.831","378.625","PAYLOAD","","US","2020-10-06","AFETR","","2884028","166047440","0 STARLINK-1694","1 46544U 20070N   20327.08335648  .00095229  00000-0  10339-2 0  9998","2 46544  52.9986 213.4261 0001632  73.6888  34.4351 15.62746791  8124"
"2.0","GENERATED VIA SPACE-TRACK.ORG API","2020-11-22T16:41:21","18 SPCS","STARLINK-1694","2020-070N","EARTH","TEME","UTC","SGP4","2020-11-22T14:00:01.000224","15.62851781","0.00013150","52.9984","210.9750","82.8380","319.9279","0","U","46544","999","180","0.00026253000000","0.00023666","0.0000000000000","6757.561","92.139","380.314","378.537","PAYLOAD","","US","2020-10-06","AFETR","","2884521","166079549","0 STARLINK-1694","1 46544U 20070N   20327.58334491 +.00023666 +00000-0 +26253-3 0  9997","2 46544 052.9984 210.9750 0001315 082.8380 319.9279 15.62851781001808"
